{
    "links": {
        "self": "http://www.neowsapp.com/rest/v1/neo/3986808?api_key=iIulBulltgU6a56xZRHN4H3l9WmuAYTsLGpBGhQ2"
    },
    "id": "3986808",
    "neo_reference_id": "3986808",
    "name": "(2020 BF2)",
    "designation": "2020 BF2",
    "nasa_jpl_url": "http://ssd.jpl.nasa.gov/sbdb.cgi?sstr=3986808",
    "absolute_magnitude_h": 23.794,
    "estimated_diameter": {
        "kilometers": {
            "estimated_diameter_min": 0.0463185523,
            "estimated_diameter_max": 0.1035714315
        },
        "meters": {
            "estimated_diameter_min": 46.3185522656,
            "estimated_diameter_max": 103.5714314852
        },
        "miles": {
            "estimated_diameter_min": 0.0287810051,
            "estimated_diameter_max": 0.064356284
        },
        "feet": {
            "estimated_diameter_min": 151.963759015,
            "estimated_diameter_max": 339.8012952739
        }
    },
    "is_potentially_hazardous_asteroid": false,
    "close_approach_data": [
        {
            "close_approach_date": "2020-01-26",
            "close_approach_date_full": "2020-Jan-26 21:36",
            "epoch_date_close_approach": 1580074560000,
            "relative_velocity": {
                "kilometers_per_second": "11.3882537175",
                "kilometers_per_hour": "40997.7133831739",
                "miles_per_hour": "25474.3847407838"
            },
            "miss_distance": {
                "astronomical": "0.0517812804",
                "lunar": "20.1429180756",
                "kilometers": "7746369.253712748",
                "miles": "4813370.6552940024"
            },
            "orbiting_body": "Earth"
        }
    ],
    "orbital_data": {
        "orbit_id": "3",
        "orbit_determination_date": "2020-01-27 05:38:15",
        "first_observation_date": "2020-01-20",
        "last_observation_date": "2020-01-26",
        "data_arc_in_days": 6,
        "observations_used": 58,
        "orbit_uncertainty": "8",
        "minimum_orbit_intersection": ".0437315",
        "jupiter_tisserand_invariant": "3.522",
        "epoch_osculation": "2458869.5",
        "eccentricity": ".5508030271888983",
        "semi_major_axis": "2.092005775557916",
        "inclination": "12.16726001117476",
        "ascending_node_longitude": "114.0844630605048",
        "orbital_period": "1105.204757303937",
        "perihelion_distance": ".9397226614839568",
        "perihelion_argument": "46.2181415314931",
        "aphelion_distance": "3.244288889631874",
        "perihelion_time": "2458902.960768332744",
        "mean_anomaly": "349.1007738428734",
        "mean_motion": ".3257314969202563",
        "equinox": "J2000",
        "orbit_class": {
            "orbit_class_type": "APO",
            "orbit_class_description": "Near-Earth asteroid orbits which cross the Earth’s orbit similar to that of 1862 Apollo",
            "orbit_class_range": "a (semi-major axis) > 1.0 AU; q (perihelion) < 1.017 AU"
        }
    },
    "is_sentry_object": false
}